{
    "CCSDS_OMM_VERS": "3.0",
    "COMMENT": "GENERATED VIA SPACE-TRACK.ORG API",
    "CREATION_DATE": "2025-05-23T14:26:18",
    "ORIGINATOR": "18 SPCS",
    "OBJECT_NAME": "COSMOS 2461 (GLONASS)",
    "OBJECT_ID": "2010-007B",
    "CENTER_NAME": "EARTH",
    "REF_FRAME": "TEME",
    "TIME_SYSTEM": "UTC",
    "MEAN_ELEMENT_THEORY": "SGP4",
    "EPOCH": "2025-05-23T08:15:20.372256",
    "MEAN_MOTION": "2.13106691",
    "ECCENTRICITY": "0.00203730",
    "INCLINATION": "65.6531",
    "RA_OF_ASC_NODE": "327.6968",
    "ARG_OF_PERICENTER": "2.7057",
    "MEAN_ANOMALY": "153.6190",
    "EPHEMERIS_TYPE": "0",
    "CLASSIFICATION_TYPE": "U",
    "NORAD_CAT_ID": "36401",
    "ELEMENT_SET_NO": "999",
    "REV_AT_EPOCH": "11850",
    "BSTAR": "0.00000000000000",
    "MEAN_MOTION_DOT": "-0.00000028",
    "MEAN_MOTION_DDOT": "0.0000000000000",
    "SEMIMAJOR_AXIS": "25507.650",
    "PERIOD": "675.718",
    "APOAPSIS": "19181.482",
    "PERIAPSIS": "19077.548",
    "OBJECT_TYPE": "PAYLOAD",
    "RCS_SIZE": "LARGE",
    "COUNTRY_CODE": "CIS",
    "LAUNCH_DATE": "2010-03-01",
    "SITE": "TTMTR",
    "DECAY_DATE": null,
    "FILE": "4736914",
    "GP_ID": "288172411",
    "TLE_LINE0": "0 COSMOS 2461 (GLONASS)",
    "TLE_LINE1": "1 36401U 10007B   25143.34398579 -.00000028  00000-0  00000+0 0  9995",
    "TLE_LINE2": "2 36401  65.6531 327.6968 0020373   2.7057 153.6190  2.13106691118508"
}